[{"OBJECT_NAME":"STARLINK-3326","OBJECT_ID":"2022-001AT","EPOCH":"2025-10-12T02:07:28.617024","MEAN_MOTION":15.08832816,"ECCENTRICITY":0.00012596,"INCLINATION":53.2162,"RA_OF_ASC_NODE":126.215,"ARG_OF_PERICENTER":91.3175,"MEAN_ANOMALY":268.7962,"EPHEMERIS_TYPE":0,"CLASSIFICATION_TYPE":"U","NORAD_CAT_ID":50844,"ELEMENT_SET_NO":999,"REV_AT_EPOCH":20783,"BSTAR":0.00012314448,"MEAN_MOTION_DOT":1.672e-5,"MEAN_MOTION_DDOT":0},{"OBJECT_NAME":"STARLINK-3230","OBJECT_ID":"2022-001AU","EPOCH":"2025-10-12T06:21:49.326336","MEAN_MOTION":15.08827838,"ECCENTRICITY":0.0001473,"INCLINATION":53.2144,"RA_OF_ASC_NODE":125.422,"ARG_OF_PERICENTER":82.4869,"MEAN_ANOMALY":277.629,"EPHEMERIS_TYPE":0,"CLASSIFICATION_TYPE":"U","NORAD_CAT_ID":50845,"ELEMENT_SET_NO":999,"REV_AT_EPOCH":20786,"BSTAR":-0.00038073982,"MEAN_MOTION_DOT":-6.34e-5,"MEAN_MOTION_DDOT":0},{"OBJECT_NAME":"STARLINK-3308","OBJECT_ID":"2022-001AV","EPOCH":"2025-10-12T07:04:15.310560","MEAN_MOTION":15.08844092,"ECCENTRICITY":0.00013305,"INCLINATION":53.2161,"RA_OF_ASC_NODE":125.4089,"ARG_OF_PERICENTER":94.5422,"MEAN_ANOMALY":265.5722,"EPHEMERIS_TYPE":0,"CLASSIFICATION_TYPE":"U","NORAD_CAT_ID":50846,"ELEMENT_SET_NO":999,"REV_AT_EPOCH":20786,"BSTAR":6.3581476e-5,"MEAN_MOTION_DOT":7.24e-6,"MEAN_MOTION_DDOT":0},{"OBJECT_NAME":"STARLINK-3315","OBJECT_ID":"2022-001AX","EPOCH":"2025-10-12T01:56:53.364480","MEAN_MOTION":15.08844854,"ECCENTRICITY":0.0001296,"INCLINATION":53.2158,"RA_OF_ASC_NODE":126.2489,"ARG_OF_PERICENTER":99.2901,"MEAN_ANOMALY":260.8238,"EPHEMERIS_TYPE":0,"CLASSIFICATION_TYPE":"U","NORAD_CAT_ID":50848,"ELEMENT_SET_NO":999,"REV_AT_EPOCH":20783,"BSTAR":0.00018660711,"MEAN_MOTION_DOT":2.684e-5,"MEAN_MOTION_DDOT":0},{"OBJECT_NAME":"STARLINK-3311","OBJECT_ID":"2022-001AY","EPOCH":"2025-10-12T06:58:55.828416","MEAN_MOTION":15.08843766,"ECCENTRICITY":0.000136,"INCLINATION":53.2168,"RA_OF_ASC_NODE":125.3095,"ARG_OF_PERICENTER":87.873,"MEAN_ANOMALY":272.2418,"EPHEMERIS_TYPE":0,"CLASSIFICATION_TYPE":"U","NORAD_CAT_ID":50849,"ELEMENT_SET_NO":999,"REV_AT_EPOCH":20786,"BSTAR":4.9526306e-5,"MEAN_MOTION_DOT":5.0e-6,"MEAN_MOTION_DDOT":0},{"OBJECT_NAME":"STARLINK-3312","OBJECT_ID":"2022-001AZ","EPOCH":"2025-10-12T05:28:51.108384","MEAN_MOTION":15.08839928,"ECCENTRICITY":0.00010196,"INCLINATION":53.2164,"RA_OF_ASC_NODE":85.5879,"ARG_OF_PERICENTER":84.2406,"MEAN_ANOMALY":275.8703,"EPHEMERIS_TYPE":0,"CLASSIFICATION_TYPE":"U","NORAD_CAT_ID":50850,"ELEMENT_SET_NO":999,"REV_AT_EPOCH":20895,"BSTAR":2.0022909e-5,"MEAN_MOTION_DOT":3.1e-7,"MEAN_MOTION_DDOT":0},{"OBJECT_NAME":"STARLINK-3314","OBJECT_ID":"2022-001BA","EPOCH":"2025-10-12T06:27:07.458048","MEAN_MOTION":15.08843767,"ECCENTRICITY":0.00012922,"INCLINATION":53.2152,"RA_OF_ASC_NODE":125.3292,"ARG_OF_PERICENTER":90.9962,"MEAN_ANOMALY":269.1178,"EPHEMERIS_TYPE":0,"CLASSIFICATION_TYPE":"U","NORAD_CAT_ID":50851,"ELEMENT_SET_NO":999,"REV_AT_EPOCH":20786,"BSTAR":-0.00014590927,"MEAN_MOTION_DOT":-2.61e-5,"MEAN_MOTION_DDOT":0},{"OBJECT_NAME":"STARLINK-3366","OBJECT_ID":"2022-005A","EPOCH":"2025-10-12T07:05:33.692640","MEAN_MOTION":15.08837338,"ECCENTRICITY":0.00014863,"INCLINATION":53.2172,"RA_OF_ASC_NODE":235.2866,"ARG_OF_PERICENTER":92.5943,"MEAN_ANOMALY":267.5219,"EPHEMERIS_TYPE":0,"CLASSIFICATION_TYPE":"U","NORAD_CAT_ID":51104,"ELEMENT_SET_NO":999,"REV_AT_EPOCH":20647,"BSTAR":2.5661402e-5,"MEAN_MOTION_DOT":1.2e-6,"MEAN_MOTION_DDOT":0},{"OBJECT_NAME":"STARLINK-3350","OBJECT_ID":"2022-005B","EPOCH":"2025-10-12T06:28:27.440256","MEAN_MOTION":15.08862512,"ECCENTRICITY":0.00014161,"INCLINATION":53.2168,"RA_OF_ASC_NODE":235.404,"ARG_OF_PERICENTER":96.2736,"MEAN_ANOMALY":263.8417,"EPHEMERIS_TYPE":0,"CLASSIFICATION_TYPE":"U","NORAD_CAT_ID":51105,"ELEMENT_SET_NO":999,"REV_AT_EPOCH":20647,"BSTAR":0.00011851233,"MEAN_MOTION_DOT":1.6e-5,"MEAN_MOTION_DDOT":0},{"OBJECT_NAME":"STARLINK-3176","OBJECT_ID":"2022-005C","EPOCH":"2025-10-12T04:21:17.569440","MEAN_MOTION":15.08834268,"ECCENTRICITY":0.00015233,"INCLINATION":53.2176,"RA_OF_ASC_NODE":235.7994,"ARG_OF_PERICENTER":87.3497,"MEAN_ANOMALY":272.7669,"EPHEMERIS_TYPE":0,"CLASSIFICATION_TYPE":"U","NORAD_CAT_ID":51106,"ELEMENT_SET_NO":999,"REV_AT_EPOCH":20645,"BSTAR":8.688044e-6,"MEAN_MOTION_DOT":-1.5e-6,"MEAN_MOTION_DDOT":0},{"OBJECT_NAME":"STARLINK-3362","OBJECT_ID":"2022-005E","EPOCH":"2025-10-12T06:23:09.866688","MEAN_MOTION":15.08843468,"ECCENTRICITY":0.00014583,"INCLINATION":53.2166,"RA_OF_ASC_NODE":235.4209,"ARG_OF_PERICENTER":90.7943,"MEAN_ANOMALY":269.3216,"EPHEMERIS_TYPE":0,"CLASSIFICATION_TYPE":"U","NORAD_CAT_ID":51108,"ELEMENT_SET_NO":999,"REV_AT_EPOCH":20647,"BSTAR":2.5702917e-5,"MEAN_MOTION_DOT":1.21e-6,"MEAN_MOTION_DDOT":0},{"OBJECT_NAME":"STARLINK-3358","OBJECT_ID":"2022-005F","EPOCH":"2025-10-12T06:49:38.868960","MEAN_MOTION":15.08844227,"ECCENTRICITY":0.00012757,"INCLINATION":53.2162,"RA_OF_ASC_NODE":235.2899,"ARG_OF_PERICENTER":89.3459,"MEAN_ANOMALY":270.7679,"EPHEMERIS_TYPE":0,"CLASSIFICATION_TYPE":"U","NORAD_CAT_ID":51109,"ELEMENT_SET_NO":999,"REV_AT_EPOCH":20624,"BSTAR":5.1031194e-5,"MEAN_MOTION_DOT":5.24e-6,"MEAN_MOTION_DDOT":0},{"OBJECT_NAME":"STARLINK-3344","OBJECT_ID":"2022-005G","EPOCH":"2025-10-12T06:07:17.116608","MEAN_MOTION":15.0882662,"ECCENTRICITY":0.00014731,"INCLINATION":53.218,"RA_OF_ASC_NODE":235.4498,"ARG_OF_PERICENTER":83.3245,"MEAN_ANOMALY":276.7915,"EPHEMERIS_TYPE":0,"CLASSIFICATION_TYPE":"U","NORAD_CAT_ID":51110,"ELEMENT_SET_NO":999,"REV_AT_EPOCH":20647,"BSTAR":5.5718497e-5,"MEAN_MOTION_DOT":5.99e-6,"MEAN_MOTION_DDOT":0},{"OBJECT_NAME":"STARLINK-3173","OBJECT_ID":"2022-005H","EPOCH":"2025-10-12T07:10:51.481344","MEAN_MOTION":15.08843317,"ECCENTRICITY":0.00023291,"INCLINATION":53.2157,"RA_OF_ASC_NODE":235.271,"ARG_OF_PERICENTER":99.1481,"MEAN_ANOMALY":260.9775,"EPHEMERIS_TYPE":0,"CLASSIFICATION_TYPE":"U","NORAD_CAT_ID":51111,"ELEMENT_SET_NO":999,"REV_AT_EPOCH":20647,"BSTAR":-4.0319848e-5,"MEAN_MOTION_DOT":-9.3e-6,"MEAN_MOTION_DDOT":0},{"OBJECT_NAME":"STARLINK-3374","OBJECT_ID":"2022-005J","EPOCH":"2025-10-12T06:03:20.710656","MEAN_MOTION":15.08833078,"ECCENTRICITY":0.00013646,"INCLINATION":53.2174,"RA_OF_ASC_NODE":235.4548,"ARG_OF_PERICENTER":80.7737,"MEAN_ANOMALY":279.341,"EPHEMERIS_TYPE":0,"CLASSIFICATION_TYPE":"U","NORAD_CAT_ID":51112,"ELEMENT_SET_NO":999,"REV_AT_EPOCH":20647,"BSTAR":0.00025702434,"MEAN_MOTION_DOT":3.804e-5,"MEAN_MOTION_DDOT":0},{"OBJECT_NAME":"STARLINK-3372","OBJECT_ID":"2022-005K","EPOCH":"2025-10-12T05:51:22.091616","MEAN_MOTION":15.0884639,"ECCENTRICITY":0.00013936,"INCLINATION":53.2172,"RA_OF_ASC_NODE":235.5173,"ARG_OF_PERICENTER":86.5107,"MEAN_ANOMALY":273.6045,"EPHEMERIS_TYPE":0,"CLASSIFICATION_TYPE":"U","NORAD_CAT_ID":51113,"ELEMENT_SET_NO":999,"REV_AT_EPOCH":20646,"BSTAR":0.00013050993,"MEAN_MOTION_DOT":1.79e-5,"MEAN_MOTION_DDOT":0}]
