50844,STARLINK-3326,2022,95.43,260.0,+,53.22,Active,1,LEO,USA,USA,Commercial,Communications,Falcon,1 50844U 22001AT  25285.08852566  .00001672  00000+0  12314-3 0  9997,2 50844  53.2162 126.2150 0001259  91.3175 268.7962 15.08832816207834,15.08832816,0.0001259,LEO
50845,STARLINK-3230,2022,95.44,260.0,+,53.22,Active,1,LEO,USA,USA,Commercial,Communications,Falcon,1 50845U 22001AU  25285.26515424 -.00006340  00000+0 -38074-3 0  9997,2 50845  53.2144 125.4220 0001473  82.4869 277.6290 15.08827838207867,15.08827838,0.0001473,LEO
50846,STARLINK-3308,2022,95.44,260.0,+,53.22,Active,1,LEO,USA,USA,Commercial,Communications,Falcon,1 50846U 22001AV  25285.29462165  .00000724  00000+0  63581-4 0  9994,2 50846  53.2161 125.4089 0001330  94.5422 265.5722 15.08844092207868,15.08844092,0.000133,LEO
50848,STARLINK-3315,2022,95.44,260.0,+,53.22,Active,1,LEO,USA,USA,Commercial,Communications,Falcon,1 50848U 22001AX  25285.08117320  .00002684  00000+0  18661-3 0  9998,2 50848  53.2158 126.2489 0001296  99.2901 260.8238 15.08844854207837,15.08844854,0.0001296,LEO
50849,STARLINK-3311,2022,95.44,260.0,+,53.22,Active,1,LEO,USA,USA,Commercial,Communications,Falcon,1 50849U 22001AY  25285.29092394  .00000500  00000+0  49526-4 0  9995,2 50849  53.2168 125.3095 0001360  87.8730 272.2418 15.08843766207868,15.08843766,0.000136,LEO
50850,STARLINK-3312,2022,95.44,260.0,+,53.22,Active,1,LEO,USA,USA,Commercial,Communications,Falcon,1 50850U 22001AZ  25285.22836931  .00000031  00000+0  20023-4 0  9993,2 50850  53.2164  85.5879 0001019  84.2406 275.8703 15.08839928208957,15.08839928,0.0001019,LEO
50851,STARLINK-3314,2022,95.44,260.0,+,53.22,Active,1,LEO,USA,USA,Commercial,Communications,Falcon,1 50851U 22001BA  25285.26883632 -.00002610  00000+0 -14591-3 0  9997,2 50851  53.2152 125.3292 0001292  90.9962 269.1178 15.08843767207868,15.08843767,0.0001292,LEO
51104,STARLINK-3366,2022,95.44,260.0,+,53.22,Active,1,LEO,USA,USA,Commercial,Communications,Falcon,1 51104U 22005A   25285.29552885  .00000120  00000+0  25661-4 0  9992,2 51104  53.2172 235.2866 0001486  92.5943 267.5219 15.08837338206473,15.08837338,0.0001486,LEO
51105,STARLINK-3350,2022,95.44,260.0,+,53.22,Active,1,LEO,USA,USA,Commercial,Communications,Falcon,1 51105U 22005B   25285.26976204  .00001600  00000+0  11851-3 0  9994,2 51105  53.2168 235.4040 0001416  96.2736 263.8417 15.08862512206470,15.08862512,0.0001416,LEO
51106,STARLINK-3176,2022,95.44,260.0,+,53.22,Active,1,LEO,USA,USA,Commercial,Communications,Falcon,1 51106U 22005C   25285.18145335 -.00000150  00000+0  86880-5 0  9995,2 51106  53.2176 235.7994 0001523  87.3497 272.7669 15.08834268206458,15.08834268,0.0001523,LEO
51108,STARLINK-3362,2022,95.44,260.0,+,53.22,Active,1,LEO,USA,USA,Commercial,Communications,Falcon,1 51108U 22005E   25285.26608642  .00000121  00000+0  25703-4 0  9994,2 51108  53.2166 235.4209 0001458  90.7943 269.3216 15.08843468206470,15.08843468,0.0001458,LEO
51109,STARLINK-3358,2022,95.44,260.0,+,53.22,Active,1,LEO,USA,USA,Commercial,Communications,Falcon,1 51109U 22005F   25285.28447765  .00000524  00000+0  51031-4 0  9994,2 51109  53.2162 235.2899 0001275  89.3459 270.7679 15.08844227206241,15.08844227,0.0001275,LEO
51110,STARLINK-3344,2022,95.43,260.0,+,53.22,Active,1,LEO,USA,USA,Commercial,Communications,Falcon,1 51110U 22005G   25285.25505922  .00000599  00000+0  55718-4 0  9991,2 51110  53.2180 235.4498 0001473  83.3245 276.7915 15.08826620206478,15.0882662,0.0001473,LEO
51111,STARLINK-3173,2022,95.44,260.0,+,53.22,Active,1,LEO,USA,USA,Commercial,Communications,Falcon,1 51111U 22005H   25285.29920696 -.00000930  00000+0 -40320-4 0  9999,2 51111  53.2157 235.2710 0002329  99.1481 260.9775 15.08843317206477,15.08843317,0.0002329,LEO
51112,STARLINK-3374,2022,95.44,260.0,+,53.22,Active,1,LEO,USA,USA,Commercial,Communications,Falcon,1 51112U 22005J   25285.25232304  .00003804  00000+0  25702-3 0  9995,2 51112  53.2174 235.4548 0001364  80.7737 279.3410 15.08833078206479,15.08833078,0.0001364,LEO
51113,STARLINK-3372,2022,95.44,260.0,+,53.22,Active,1,LEO,USA,USA,Commercial,Communications,Falcon,1 51113U 22005K   25285.24400569  .00001790  00000+0  13051-3 0  9991,2 51113  53.2172 235.5173 0001393  86.5107 273.6045 15.08846390206461,15.0884639,0.0001393,LEO
